NORAD_CAT_ID,OBJECT_NAME,OBJECT_TYPE,EPOCH,MEAN_MOTION,ECCENTRICITY,INCLINATION,RA_OF_ASC_NODE,ARG_OF_PERICENTER,MEAN_ANOMALY,BSTAR,MEAN_MOTION_DOT,MEAN_MOTION_DDOT,TLE_LINE0,TLE_LINE1,TLE_LINE2,SEMIMAJOR_AXIS,PERIOD,APOGEE,PERIGEE,DECAYED
53569.0,STARLINK-4582,PAYLOAD,2023-01-07 06:27:44,15.08825987,0.0001578,53.2156,209.9974,58.1191,301.9954,-0.00017017,-2.994e-05,0.0,0 STARLINK-4582,1 53569U 22101AU  23007.26926991 -.00002994  00000-0 -17017-3 0  9995,2 53569  53.2156 209.9974 0001578  58.1191 301.9954 15.08825987 21713,6917.923000000002,95.438,540.88,538.697,0.0
53569.0,STARLINK-4582,PAYLOAD,2023-01-07 14:24:40,15.08823455,0.0001564999999999,53.2155,208.5098,57.9253,302.1891,-0.00011007,-2.039e-05,0.0,0 STARLINK-4582,1 53569U 22101AU  23007.60047221 -.00002039  00000-0 -11007-3 0  9996,2 53569  53.2155 208.5098 0001565  57.9253 302.1891 15.08823455 22437,6917.931,95.439,540.879,538.7130000000002,0.0
53569.0,STARLINK-4582,PAYLOAD,2023-01-08 12:40:05,15.08822269,0.0001503,53.2171,204.3478,59.3773,300.7367,2.7244e-05,1.45e-06,0.0,0 STARLINK-4582,1 53569U 22101AU  23008.52783872  .00000145  00000-0  27244-4 0  9992,2 53569  53.2171 204.3478 0001503  59.3773 300.7367 15.08822269 21901,6917.935,95.439,540.839,538.76,0.0
53569.0,STARLINK-4582,PAYLOAD,2023-01-08 22:12:23,15.08834085,0.0001651,53.2166,202.563,71.2024,288.9147,6.483300000000001e-05,7.44e-06,0.0,0 STARLINK-4582,1 53569U 22101AU  23008.92527430  .00000744  00000-0  64833-4 0  9992,2 53569  53.2166 202.5630 0001651  71.2024 288.9147 15.08834085 22634,6917.898,95.438,540.906,538.621,0.0
53569.0,STARLINK-4582,PAYLOAD,2023-01-09 06:09:18,15.08842613,0.0001703,53.2181,201.0769,63.9201,296.1966,0.00027119,4.031e-05,0.0,0 STARLINK-4582,1 53569U 22101AU  23009.25646568  .00004031  00000-0  27119-3 0  9991,2 53569  53.2181 201.0769 0001703  63.9201 296.1966 15.08842613 22019,6917.871999999999,95.437,540.9159999999998,538.559,0.0
53569.0,STARLINK-4582,PAYLOAD,2023-01-09 22:03:09,15.08849821,0.000176,53.2173,198.1034,63.2411,296.8761,0.00030438,4.561e-05,0.0,0 STARLINK-4582,1 53569U 22101AU  23009.91886220  .00004561  00000-0  30438-3 0  9991,2 53569  53.2173 198.1034 0001760  63.2411 296.8761 15.08849821 22782,6917.85,95.437,540.933,538.498,0.0
53569.0,STARLINK-4582,PAYLOAD,2023-01-10 12:21:37,15.08852455,0.0002042,53.2156,195.4265,72.4276,287.694,0.00029271,4.375e-05,0.0,0 STARLINK-4582,1 53569U 22101AU  23010.51502075  .00004375  00000-0  29271-3 0  9998,2 53569  53.2156 195.4265 0002042  72.4276 287.6940 15.08852455 22205,6917.842,95.437,541.12,538.295,0.0
53569.0,STARLINK-4582,PAYLOAD,2023-01-10 21:53:56,15.08855683,0.0001808,53.216,193.6441,62.2118,297.9057,0.00013096,1.798e-05,0.0,0 STARLINK-4582,1 53569U 22101AU  23010.91245887  .00001798  00000-0  13096-3 0  9991,2 53569  53.2160 193.6441 0001808  62.2118 297.9057 15.08855683 22936,6917.831999999999,95.437,540.948,538.447,0.0
53569.0,STARLINK-4582,PAYLOAD,2023-01-11 12:12:23,15.08861367,0.0001808,53.2166,190.9676,64.8438,295.2742,4.7528e-05,4.69e-06,0.0,0 STARLINK-4582,1 53569U 22101AU  23011.50860822  .00000469  00000-0  47528-4 0  9991,2 53569  53.2166 190.9676 0001808  64.8438 295.2742 15.08861367 23024,6917.815,95.436,540.931,538.429,0.0
53569.0,STARLINK-4582,PAYLOAD,2023-01-11 15:23:10,15.08857378,0.0001242,53.2169,190.3726,48.3563,311.7535,3.9554e-05,3.42e-06,0.0,0 STARLINK-4582,1 53569U 22101AU  23011.64108822  .00000342  00000-0  39554-4 0  9991,2 53569  53.2169 190.3726 0001242  48.3563 311.7535 15.08857378 22373,6917.826999999998,95.436,540.5509999999998,538.8330000000002,0.0
53569.0,STARLINK-4582,PAYLOAD,2023-01-12 18:24:43,15.08844977,0.00014,53.2175,185.317,51.8163,308.2956,5.5714e-05,5.99e-06,0.0,0 STARLINK-4582,1 53569U 22101AU  23012.76716659  .00000599  00000-0  55714-4 0  9998,2 53569  53.2175 185.3170 0001400  51.8163 308.2956 15.08844977 22546,6917.865,95.437,540.6990000000002,538.762,0.0
53569.0,STARLINK-4582,PAYLOAD,2023-01-13 03:57:02,15.08846701,0.0001273,53.2181,183.5332,47.0447,313.0651,-0.00016931,-2.982e-05,0.0,0 STARLINK-4582,1 53569U 22101AU  23013.16460952 -.00002982  00000-0 -16931-3 0  9992,2 53569  53.2181 183.5332 0001273  47.0447 313.0651 15.08846701 23277,6917.86,95.437,540.606,538.844,0.0
53569.0,STARLINK-4582,PAYLOAD,2023-01-13 18:15:31,15.08827677,0.0001144,53.218,180.857,53.7265,306.3832,-0.00012805,-2.324e-05,0.0,0 STARLINK-4582,1 53569U 22101AU  23013.76078329 -.00002324  00000-0 -12805-3 0  9997,2 53569  53.2180 180.8570 0001144  53.7265 306.3832 15.08827677 22691,6917.918000000001,95.438,540.5740000000001,538.992,0.0
53569.0,STARLINK-4582,PAYLOAD,2023-01-13 21:26:17,15.08829399,0.0001364,53.2179,180.2615,59.2124,300.9002,-0.00010993,-2.036e-05,0.0,0 STARLINK-4582,1 53569U 22101AU  23013.89326296 -.00002036  00000-0 -10993-3 0  9996,2 53569  53.2179 180.2615 0001364  59.2124 300.9002 15.08829399 23381,6917.9130000000005,95.438,540.721,538.8340000000001,0.0
53569.0,STARLINK-4582,PAYLOAD,2023-01-14 10:09:22,15.08830169,0.0001348,53.2178,177.8825,55.915,304.197,6.697e-06,-1.81e-06,0.0,0 STARLINK-4582,1 53569U 22101AU  23014.42318225 -.00000181  00000-0  66970-5 0  9995,2 53569  53.2178 177.8825 0001348  55.9150 304.1970 15.08830169 22790,6917.91,95.438,540.7080000000001,538.8430000000001,0.0
53569.0,STARLINK-4582,PAYLOAD,2023-01-15 03:38:36,15.08860393,0.0001355,53.2173,174.6122,72.6066,287.5074,-0.00028991,-4.901e-05,0.0,0 STARLINK-4582,1 53569U 22101AU  23015.15181208 -.00004901  00000-0 -28991-3 0  9999,2 53569  53.2173 174.6122 0001355  72.6066 287.5074 15.08860393 22904,6917.818,95.436,540.62,538.746,0.0
53569.0,STARLINK-4582,PAYLOAD,2023-01-15 10:00:10,15.08825316,0.0001341,53.217,173.423,68.8954,291.2181,0.00017132,2.439e-05,0.0,0 STARLINK-4582,1 53569U 22101AU  23015.41678856  .00002439  00000-0  17132-3 0  9995,2 53569  53.2170 173.4230 0001341  68.8954 291.2181 15.08825316 22947,6917.925,95.438,540.7180000000001,538.863,0.0
53569.0,STARLINK-4582,PAYLOAD,2023-01-15 17:57:05,15.08838306,0.0001303,53.2177,171.9358,65.5525,294.5603,0.00020189,2.926e-05,0.0,0 STARLINK-4582,1 53569U 22101AU  23015.74798272  .00002926  00000-0  20189-3 0  9993,2 53569  53.2177 171.9358 0001303  65.5525 294.5603 15.08838306 22997,6917.886,95.438,540.6519999999999,538.849,0.0
53569.0,STARLINK-4582,PAYLOAD,2023-01-16 03:29:24,15.08838671,0.0001205999999999,53.2168,170.1514,71.2712,288.8411,0.00018527,2.662e-05,0.0,0 STARLINK-4582,1 53569U 22101AU  23016.14542609  .00002662  00000-0  18527-3 0  9999,2 53569  53.2168 170.1514 0001206  71.2712 288.8411 15.08838671 23726,6917.884,95.438,540.5840000000001,538.915,0.0
53569.0,STARLINK-4582,PAYLOAD,2023-01-16 19:23:16,15.0884073,0.0001344,53.2173,167.1779,75.9629,284.1512,0.00010527,1.388e-05,0.0,0 STARLINK-4582,1 53569U 22101AU  23016.80782637  .00001388  00000-0  10527-3 0  9995,2 53569  53.2173 167.1779 0001344  75.9629 284.1512 15.08840730 23159,6917.878000000001,95.438,540.673,538.813,0.0
53569.0,STARLINK-4582,PAYLOAD,2023-01-17 12:52:31,15.08827814,0.0001133,53.2183,163.9068,79.2398,280.8722,8.4265e-05,1.053e-05,0.0,0 STARLINK-4582,1 53569U 22101AU  23017.53647628  .00001053  00000-0  84265-4 0  9996,2 53569  53.2183 163.9068 0001133  79.2398 280.8722 15.08827814 23931,6917.918000000001,95.438,540.566,538.999,0.0
53569.0,STARLINK-4582,PAYLOAD,2023-01-17 17:38:40,15.08843885,0.0001264999999999,53.2181,163.0139,90.72,269.3937,4.9967e-05,5.08e-06,0.0,0 STARLINK-4582,1 53569U 22101AU  23017.73518759  .00000508  00000-0  49967-4 0  9994,2 53569  53.2181 163.0139 0001265  90.7200 269.3937 15.08843885 23964,6917.869000000001,95.437,540.609,538.8580000000001,0.0
53569.0,STARLINK-4582,PAYLOAD,2023-01-18 14:18:41,15.08841382,0.0001228,53.2183,159.1491,87.4678,272.6454,0.00010534,1.389e-05,0.0,0 STARLINK-4582,1 53569U 22101AU  23018.59630921  .00001389  00000-0  10534-3 0  9990,2 53569  53.2183 159.1491 0001228  87.4678 272.6454 15.08841382 23426,6917.876,95.437,540.591,538.8919999999999,0.0
53569.0,STARLINK-4582,PAYLOAD,2023-01-18 15:54:03,15.08844605,0.0001205,53.2185,158.8509,92.3999,267.7131,0.00012772,1.746e-05,0.0,0 STARLINK-4582,1 53569U 22101AU  23018.66254595  .00001746  00000-0  12772-3 0  9990,2 53569  53.2185 158.8509 0001205  92.3999 267.7131 15.08844605 24104,6917.866,95.437,540.565,538.898,0.0
53569.0,STARLINK-4582,PAYLOAD,2023-01-19 18:55:38,15.08834651,0.0001094,53.2188,153.7977,84.9311,275.1806,2.2275e-05,6.7e-07,0.0,0 STARLINK-4582,1 53569U 22101AU  23019.78864232  .00000067  00000-0  22275-4 0  9994,2 53569  53.2188 153.7977 0001094  84.9311 275.1806 15.08834651 23607,6917.897,95.438,540.519,539.005,0.0
53569.0,STARLINK-4582,PAYLOAD,2023-01-20 01:17:10,15.08840637,0.0001065,53.2181,152.6099,82.7662,277.3451,0.00010799,1.431e-05,0.0,0 STARLINK-4582,1 53569U 22101AU  23020.05359738  .00001431  00000-0  10799-3 0  9999,2 53569  53.2181 152.6099 0001065  82.7662 277.3451 15.08840637 23641,6917.878000000001,95.438,540.48,539.007,0.0
53569.0,STARLINK-4582,PAYLOAD,2023-01-20 09:14:05,15.08851766,9.34e-05,53.2189,151.1223,78.3843,281.7254,0.00012547,1.7100000000000002e-05,0.0,0 STARLINK-4582,1 53569U 22101AU  23020.38479110  .00001710  00000-0  12547-3 0  9995,2 53569  53.2189 151.1223 0000934  78.3843 281.7254 15.08851766 23698,6917.844,95.437,540.356,539.063,0.0
53569.0,STARLINK-4582,PAYLOAD,2023-01-21 01:07:57,15.08844871,0.0001027,53.2179,148.1491,84.4432,275.6678,0.00027267,4.055e-05,0.0,0 STARLINK-4582,1 53569U 22101AU  23021.04719454  .00004055  00000-0  27267-3 0  9997,2 53569  53.2179 148.1491 0001027  84.4432 275.6678 15.08844871 23798,6917.866,95.437,540.441,539.02,0.0
53569.0,STARLINK-4582,PAYLOAD,2023-01-21 09:04:53,15.08830305,0.000128,53.2177,146.6623,94.9517,265.1621,-0.00018751,-3.27e-05,0.0,0 STARLINK-4582,1 53569U 22101AU  23021.37840076 -.00003270  00000-0 -18751-3 0  9996,2 53569  53.2177 146.6623 0001280  94.9517 265.1621 15.08830305 23842,6917.91,95.438,540.661,538.89,0.0
